STARLINK-30130          
1 56697U 23067K   26067.97846141 -.00000248  00000+0  45743-6 0  9995
2 56697  43.0019 274.8532 0002189 263.0588  97.0015 15.26744788155336
KUIPER-00204            
1 67145U 25301N   26068.39760395  .00020516  00000+0  79568-3 0  9999
2 67145  51.8870  71.6415 0003071 354.8934   5.2016 15.26088400 13737
